OBJECT_NAME,OBJECT_ID,EPOCH,MEAN_MOTION,ECCENTRICITY,INCLINATION,RA_OF_ASC_NODE,ARG_OF_PERICENTER,MEAN_ANOMALY,EPHEMERIS_TYPE,CLASSIFICATION_TYPE,NORAD_CAT_ID,ELEMENT_SET_NO,REV_AT_EPOCH,BSTAR,MEAN_MOTION_DOT,MEAN_MOTION_DDOT
HST,1990-037B,2026-06-25T17:58:19.077888,15.30841303,.0001407,28.4731,22.0577,244.3264,115.7187,0,U,20580,999,78988,.24048E-3,.7613E-4,0
POLAR,1996-013A,2026-06-24T17:44:41.079840,1.29846085,.6477909,79.8637,226.9636,208.8193,90.3423,0,U,23802,999,14495,0,.126E-5,0
SWAS,1998-071A,2026-06-25T11:55:34.542048,15.09662860,.0008779,69.8945,206.0888,251.4522,108.5689,0,U,25560,999,49852,.17855E-3,.2778E-4,0
CXO,1999-040B,2026-06-26T07:28:02.155584,0.37800874,.78186452,56.2784,116.4107,310.1913,0.3296,0,U,25867,999,1735,0,.484E-5,0
XMM-NEWTON,1999-066A,2026-06-26T07:47:46.821408,0.50127949,.46710495,64.4359,282.8679,64.7288,0.1080,0,U,25989,999,2304,0,.6E-7,0
TERRA,1999-068A,2026-06-25T20:24:47.176128,14.61109283,.0002263,97.9452,226.0532,164.1961,250.6888,0,U,25994,999,41087,.79594E-4,.347E-5,0
CLUSTER II-FM7 (SAMBA),2000-041A,2026-06-26T01:33:12.192480,0.44870397,.90618129,149.9012,52.3742,269.6784,359.6419,0,U,26410,999,2035,0,.5882E-4,0
CLUSTER II-FM8 (TANGO),2000-045B,2026-06-21T22:36:54.211968,0.44420336,.90628137,150.1352,52.7746,269.8657,2.6673,0,U,26464,999,2033,0,.4849E-4,0
ODIN,2001-007A,2026-06-25T15:49:59.104704,15.78878811,.0006421,97.3802,218.1616,132.7477,227.4331,0,U,26702,999,39073,.14435E-2,.261176E-2,0
TIMED,2001-055B,2026-06-25T13:43:37.776864,14.95308716,.0001548,74.0664,218.1358,324.3764,35.7317,0,U,26998,999,33207,.87763E-4,.928E-5,0
CORIOLIS,2003-001A,2026-06-25T20:44:42.336096,14.19947044,.0013884,98.7126,183.6166,183.0945,177.0148,0,U,27640,999,21545,.66135E-4,.97E-6,0
SORCE,2003-004A,2026-06-25T08:59:40.488288,15.03747558,.0016291,39.9896,214.9630,112.2052,248.0472,0,U,27651,999,27313,.16687E-3,.2184E-4,0
MOST,2003-031D,2026-06-25T20:52:55.208352,14.21324173,.0009023,98.7043,184.4748,222.4184,137.6296,0,U,27843,999,19194,.52949E-4,.72E-6,0
SCISAT 1,2003-036A,2026-06-25T16:00:13.402656,14.81456314,.0008272,73.9289,154.4949,224.7756,135.2753,0,U,27858,999,23270,.81153E-4,.599E-5,0
SWIFT,2004-047A,2026-06-25T12:25:04.142784,15.69083714,.0001453,20.5513,120.6046,55.7807,304.2777,0,U,28485,999,18817,.50315E-3,.6234E-3,0
HINODE (SOLAR-B),2006-041A,2026-06-25T15:12:31.432032,14.68633531,.0015959,98.0544,192.6618,260.5065,99.4337,0,U,29479,999,5611,.1258E-3,.683E-5,0
SHIJIAN-6 02A (SJ-6 02A),2006-046A,2026-06-25T20:44:56.755392,15.17033483,.0004671,97.6361,217.9959,106.4554,253.7192,0,U,29505,999,7358,.39406E-3,.7729E-4,0
SHIJIAN-6 02B (SJ-6 02B),2006-046B,2026-06-25T21:03:01.498752,15.01395093,.0015357,97.7162,205.8822,36.1043,324.1215,0,U,29506,999,7204,.83047E-4,.1012E-4,0
FGRST (GLAST),2008-029A,2026-06-25T14:38:01.904064,15.23978413,.0008393,25.5804,145.9955,67.1285,293.0139,0,U,33053,999,99712,.91528E-4,.2617E-4,0
SDO,2010-005A,2026-06-25T07:38:09.279744,1.00270663,.000168,34.6685,86.2181,50.5603,149.0403,0,U,36395,999,6014,0,-.93E-6,0
CRYOSAT 2,2010-013A,2026-06-25T20:01:28.958880,14.51901894,.0002128,92.0359,279.4035,94.0690,266.0760,0,U,36508,999,85933,.28175E-4,.116E-5,0
X-SAT,2011-015C,2026-06-25T20:39:31.040352,14.25207991,.0013357,98.3510,153.4708,322.4459,37.5787,0,U,37389,999,78891,.84912E-5,-.21E-6,0
GCOM-W1 (SHIZUKU),2012-025A,2026-06-25T19:42:20.815200,14.57131919,.0001639,98.2022,117.2460,70.0073,344.2634,0,U,38337,999,75029,.10414E-3,.424E-5,0
NUSTAR,2012-031A,2026-06-25T22:00:01.998720,15.08873039,.0009064,6.0286,328.6588,240.8614,234.3503,0,U,38358,999,130,.13604E-2,.23034E-3,0
NEOSSAT,2013-009D,2026-06-25T12:03:10.594944,14.35829183,.0010244,98.4180,356.3372,216.6763,143.3722,0,U,39089,999,69793,.66169E-4,.149E-5,0
BRITE-AUSTRIA,2013-009F,2026-06-25T11:55:14.511072,14.36545099,.0009543,98.3998,355.7268,209.3907,150.6744,0,U,39091,999,69824,.70556E-4,.165E-5,0
IRIS,2013-033A,2026-06-25T12:21:47.227680,14.85900369,.0023059,97.9327,15.7660,293.2155,66.6632,0,U,39197,999,70161,.12197E-3,.1012E-4,0
HISAKI (SPRINT-A),2013-049A,2026-06-25T16:08:06.262080,13.55545428,.0136853,29.7171,176.8707,85.6438,275.9757,0,U,39253,999,63257,.64831E-4,.111E-5,0
CASSIOPE,2013-055A,2026-06-25T19:40:19.111296,15.25981751,.0289554,80.9144,56.2333,33.4463,328.4685,0,U,39265,999,66898,.55847E-3,.51526E-3,-.29447E-6
STSAT-3,2013-066G,2026-06-25T21:38:53.529216,15.02803743,.0010434,97.6217,146.6497,20.8637,339.3012,0,U,39422,999,68551,.3477E-3,.4599E-4,0
SWARM B,2013-067A,2026-06-25T20:10:47.754336,15.28600840,.0003064,87.7440,339.6872,81.9288,278.2309,0,U,39451,999,68456,.1319E-3,.3702E-4,0
