HST                     
1 20580U 90037B   26176.74883192  .00007613  00000+0  24048-3 0  9995
2 20580  28.4731  22.0577 0001407 244.3264 115.7187 15.30841303789880
POLAR                   
1 23802U 96013A   26175.73936435  .00000126  00000+0  00000+0 0  9992
2 23802  79.8637 226.9636 6477909 208.8193  90.3423  1.29846085144951
SWAS                    
1 25560U 98071A   26176.49692757  .00002778  00000+0  17855-3 0  9996
2 25560  69.8945 206.0888 0008779 251.4522 108.5689 15.09662860498523
CXO                     
1 25867U 99040B   26177.31113606  .00000484  00000+0  00000+0 0  9998
2 25867  56.2784 116.4107 7818645 310.1913   0.3296  0.37800874 17352
XMM-NEWTON              
1 25989U 99066A   26177.32484747  .00000006  00000+0  00000+0 0  9999
2 25989  64.4359 282.8679 4671049  64.7288   0.1080  0.50127949 23049
TERRA                   
1 25994U 99068A   26176.85054602  .00000347  00000+0  79594-4 0  9994
2 25994  97.9452 226.0532 0002263 164.1961 250.6888 14.61109283410870
CLUSTER II-FM7 (SAMBA)  
1 26410U 00041A   26177.06472445  .00005882  00000+0  00000+0 0  9994
2 26410 149.9012  52.3742 9061812 269.6784 359.6419  0.44870397 20352
CLUSTER II-FM8 (TANGO)  
1 26464U 00045B   26172.94229412  .00004849  00000+0  00000+0 0  9995
2 26464 150.1352  52.7746 9062813 269.8657   2.6673  0.44420336 20332
ODIN                    
1 26702U 01007A   26176.65971186  .00261176  00000+0  14435-2 0  9991
2 26702  97.3802 218.1616 0006421 132.7477 227.4331 15.78878811390735
TIMED                   
1 26998U 01055B   26176.57196501  .00000928  00000+0  87763-4 0  9994
2 26998  74.0664 218.1358 0001548 324.3764  35.7317 14.95308716332073
CORIOLIS                
1 27640U 03001A   26176.86437889  .00000097  00000+0  66135-4 0  9998
2 27640  98.7126 183.6166 0013884 183.0945 177.0148 14.19947044215457
SORCE                   
1 27651U 03004A   26176.37477417  .00002184  00000+0  16687-3 0  9995
2 27651  39.9896 214.9630 0016291 112.2052 248.0472 15.03747558273132
MOST                    
1 27843U 03031D   26176.87008343  .00000072  00000+0  52949-4 0  9997
2 27843  98.7043 184.4748 0009023 222.4184 137.6296 14.21324173191946
SCISAT 1                
1 27858U 03036A   26176.66682179  .00000599  00000+0  81153-4 0  9993
2 27858  73.9289 154.4949 0008272 224.7756 135.2753 14.81456314232705
SWIFT                   
1 28485U 04047A   26176.51740906  .00062340  00000+0  50315-3 0  9997
2 28485  20.5513 120.6046 0001453  55.7807 304.2777 15.69083714188178
HINODE (SOLAR-B)        
1 29479U 06041A   26176.63369713  .00000683  00000+0  12580-3 0  9997
2 29479  98.0544 192.6618 0015959 260.5065  99.4337 14.68633531 56117
SHIJIAN-6 02A (SJ-6 02A)
1 29505U 06046A   26176.86454578  .00007729  00000+0  39406-3 0  9995
2 29505  97.6361 217.9959 0004671 106.4554 253.7192 15.17033483 73587
SHIJIAN-6 02B (SJ-6 02B)
1 29506U 06046B   26176.87710068  .00001012  00000+0  83047-4 0  9996
2 29506  97.7162 205.8822 0015357  36.1043 324.1215 15.01395093 72048
FGRST (GLAST)           
1 33053U 08029A   26176.60974426  .00002617  00000+0  91528-4 0  9997
2 33053  25.5804 145.9955 0008393  67.1285 293.0139 15.23978413997128
SDO                     
1 36395U 10005A   26176.31816296 -.00000093  00000+0  00000+0 0  9991
2 36395  34.6685  86.2181 0001680  50.5603 149.0403  1.00270663 60147
CRYOSAT 2               
1 36508U 10013A   26176.83436295  .00000116  00000+0  28175-4 0  9993
2 36508  92.0359 279.4035 0002128  94.0690 266.0760 14.51901894859330
X-SAT                   
1 37389U 11015C   26176.86077593 -.00000021  00000+0  84912-5 0  9997
2 37389  98.3510 153.4708 0013357 322.4459  37.5787 14.25207991788914
GCOM-W1 (SHIZUKU)       
1 38337U 12025A   26176.82107425  .00000424  00000+0  10414-3 0  9997
2 38337  98.2022 117.2460 0001639  70.0073 344.2634 14.57131919750296
NUSTAR                  
1 38358U 12031A   26176.91668980  .00023034  00000+0  13604-2 0  9990
2 38358   6.0286 328.6588 0009064 240.8614 234.3503 15.08873039  1303
NEOSSAT                 
1 39089U 13009D   26176.50220596  .00000149  00000+0  66169-4 0  9998
2 39089  98.4180 356.3372 0010244 216.6763 143.3722 14.35829183697932
BRITE-AUSTRIA           
1 39091U 13009F   26176.49669573  .00000165  00000+0  70556-4 0  9994
2 39091  98.3998 355.7268 0009543 209.3907 150.6744 14.36545099698249
IRIS                    
1 39197U 13033A   26176.51512995  .00001012  00000+0  12197-3 0  9994
2 39197  97.9327  15.7660 0023059 293.2155  66.6632 14.85900369701618
HISAKI (SPRINT-A)       
1 39253U 13049A   26176.67229470  .00000111  00000+0  64831-4 0  9996
2 39253  29.7171 176.8707 0136853  85.6438 275.9757 13.55545428632574
CASSIOPE                
1 39265U 13055A   26176.81966564  .00051526 -29447-6  55847-3 0  9990
2 39265  80.9144  56.2333 0289554  33.4463 328.4685 15.25981751668988
STSAT-3                 
1 39422U 13066G   26176.90200844  .00004599  00000+0  34770-3 0  9995
2 39422  97.6217 146.6497 0010434  20.8637 339.3012 15.02803743685518
SWARM B                 
1 39451U 13067A   26176.84083049  .00003702  00000+0  13190-3 0  9995
2 39451  87.7440 339.6872 0003064  81.9288 278.2309 15.28600840684565
